ONEWEB-0229             
1 48779U 21045N   25237.73114576 -.00000034  00000+0 -12568-3 0  9993
2 48779  87.9062 318.1320 0001971  93.7671 266.3685 13.15548841205562
ONEWEB-0228             
1 48780U 21045P   25237.91667366  .00000174  00000+0  42713-3 0  9993
2 48780  87.9069 318.0693 0001850  94.2301 265.9041 13.15549685205507
ONEWEB-0232             
1 48781U 21045Q   25237.73906884 -.00000017  00000+0 -79308-4 0  9994
2 48781  87.9064 318.0980 0001909  97.5274 262.6073 13.15547873205801
ONEWEB-0231             
1 48782U 21045R   25237.71687763 -.00000088  00000+0 -26728-3 0  9990
2 48782  87.9060 318.1551 0001862  89.6438 270.4905 13.15547937205492
ONEWEB-0234             
1 48783U 21045S   25237.75479000  .00000166  00000+0  40683-3 0  9999
2 48783  87.9067 318.1155 0001775 126.7627 233.3666 13.15547003205638
ONEWEB-0238             
1 48784U 21045T   25237.75505616  .00000135  00000+0  32404-3 0  9991
2 48784  87.9063 318.1119 0001843 109.5254 250.6076 13.15547413205537
ONEWEB-0240             
1 48785U 21045U   25237.77629160 -.00000100  00000+0 -30066-3 0  9991
2 48785  87.9069 318.0910 0001574  95.0924 265.0386 13.15546330205560
ONEWEB-0246             
1 48786U 21045V   25237.92286942  .00000105  00000+0  24368-3 0  9997
2 48786  87.9072 318.0741 0001937  92.7645 267.3707 13.15548304205457
